{
  "type": "FeatureCollection",
  "features": [
    {
      "type": "Feature",
      "properties": {
        "norad_id": 27954,
        "name": "GALAXY 13 (HORIZONS-1)",
        "group": "intelsat",
        "lat": 0.8267314408167415,
        "lon": -152.3589321565795,
        "alt_km": 35781.94132494343,
        "timestamp": "2025-12-27T17:24:57.061090+00:00",
        "meta_object_name": "GALAXY 13 (HORIZONS-1)",
        "meta_object_id": "2003-044A",
        "meta_epoch": "2025-12-27T10:34:34.255200",
        "meta_mean_motion": 1.00272925,
        "meta_eccentricity": 0.0002286,
        "meta_inclination": 0.9749,
        "meta_ra_of_asc_node": 86.2819,
        "meta_arg_of_pericenter": 189.0112,
        "meta_mean_anomaly": 189.4975,
        "meta_ephemeris_type": 0,
        "meta_classification_type": "U",
        "meta_norad_cat_id": 27954,
        "meta_element_set_no": 999,
        "meta_rev_at_epoch": 4485,
        "meta_bstar": 0,
        "meta_mean_motion_dot": 1.55e-06,
        "meta_mean_motion_ddot": 0,
        "tle_line1": "1 27954U 03044A   25361.44067425  .00000155  00000+0  00000+0 0  9996",
        "tle_line2": "2 27954   0.9749  86.2819 0002286 189.0112 189.4975  1.00272925 44854"
      },
      "geometry": {
        "type": "Point",
        "coordinates": [
          -152.3589321565795,
          0.8267314408167415
        ]
      }
    },
    {
      "type": "Feature",
      "properties": {
        "norad_id": 28358,
        "name": "INTELSAT 10-02",
        "group": "intelsat",
        "lat": -0.018722073317188538,
        "lon": -3.267903018532932,
        "alt_km": 35783.34772344719,
        "timestamp": "2025-12-27T17:24:57.061102+00:00",
        "meta_object_name": "INTELSAT 10-02",
        "meta_object_id": "2004-022A",
        "meta_epoch": "2025-12-27T04:26:17.024928",
        "meta_mean_motion": 1.00270123,
        "meta_eccentricity": 0.00012817,
        "meta_inclination": 0.0163,
        "meta_ra_of_asc_node": 51.3497,
        "meta_arg_of_pericenter": 251.566,
        "meta_mean_anomaly": 218.6151,
        "meta_ephemeris_type": 0,
        "meta_classification_type": "U",
        "meta_norad_cat_id": 28358,
        "meta_element_set_no": 999,
        "meta_rev_at_epoch": 7883,
        "meta_bstar": 0,
        "meta_mean_motion_dot": 1.1e-07,
        "meta_mean_motion_ddot": 0,
        "tle_line1": "1 28358U 04022A   25361.18491927  .00000011  00000+0  00000+0 0  9992",
        "tle_line2": "2 28358   0.0163  51.3497 0001281 251.5660 218.6151  1.00270123 78830"
      },
      "geometry": {
        "type": "Point",
        "coordinates": [
          -3.267903018532932,
          -0.018722073317188538
        ]
      }
    },
    {
      "type": "Feature",
      "properties": {
        "norad_id": 28626,
        "name": "XM-3 (RHYTHM)",
        "group": "intelsat",
        "lat": -0.12940953449030557,
        "lon": 40.74527855902033,
        "alt_km": 36153.948403794086,
        "timestamp": "2025-12-27T17:24:57.061114+00:00",
        "meta_object_name": "XM-3 (RHYTHM)",
        "meta_object_id": "2005-008A",
        "meta_epoch": "2025-12-27T11:29:58.948800",
        "meta_mean_motion": 0.98950766,
        "meta_eccentricity": 0.0002317,
        "meta_inclination": 0.2107,
        "meta_ra_of_asc_node": 82.3688,
        "meta_arg_of_pericenter": 270.4449,
        "meta_mean_anomaly": 320.1063,
        "meta_ephemeris_type": 0,
        "meta_classification_type": "U",
        "meta_norad_cat_id": 28626,
        "meta_element_set_no": 999,
        "meta_rev_at_epoch": 4089,
        "meta_bstar": 0,
        "meta_mean_motion_dot": 6.9e-07,
        "meta_mean_motion_ddot": 0,
        "tle_line1": "1 28626U 05008A   25361.47915450  .00000069  00000+0  00000+0 0  9992",
        "tle_line2": "2 28626   0.2107  82.3688 0002317 270.4449 320.1063  0.98950766 40890"
      },
      "geometry": {
        "type": "Point",
        "coordinates": [
          40.74527855902033,
          -0.12940953449030557
        ]
      }
    },
    {
      "type": "Feature",
      "properties": {
        "norad_id": 28659,
        "name": "DIRECTV 8",
        "group": "intelsat",
        "lat": -0.026274348580725155,
        "lon": -121.38623007140784,
        "alt_km": 35777.24461273038,
        "timestamp": "2025-12-27T17:24:57.061125+00:00",
        "meta_object_name": "DIRECTV 8",
        "meta_object_id": "2005-019A",
        "meta_epoch": "2025-12-27T10:43:25.907232",
        "meta_mean_motion": 1.00271631,
        "meta_eccentricity": 0.0003224,
        "meta_inclination": 0.0255,
        "meta_ra_of_asc_node": 282.5158,
        "meta_arg_of_pericenter": 5.6349,
        "meta_mean_anomaly": 209.8441,
        "meta_ephemeris_type": 0,
        "meta_classification_type": "U",
        "meta_norad_cat_id": 28659,
        "meta_element_set_no": 999,
        "meta_rev_at_epoch": 7535,
        "meta_bstar": 0,
        "meta_mean_motion_dot": 2.4e-07,
        "meta_mean_motion_ddot": 0,
        "tle_line1": "1 28659U 05019A   25361.44682763  .00000024  00000+0  00000+0 0  9996",
        "tle_line2": "2 28659   0.0255 282.5158 0003224   5.6349 209.8441  1.00271631 75352"
      },
      "geometry": {
        "type": "Point",
        "coordinates": [
          -121.38623007140784,
          -0.026274348580725155
        ]
      }
    },
    {
      "type": "Feature",
      "properties": {
        "norad_id": 28702,
        "name": "GALAXY 28 (G-28)",
        "group": "intelsat",
        "lat": -0.8562638106587681,
        "lon": -81.85848756028213,
        "alt_km": 35682.88108521537,
        "timestamp": "2025-12-27T17:24:57.061137+00:00",
        "meta_object_name": "GALAXY 28 (G-28)",
        "meta_object_id": "2005-022A",
        "meta_epoch": "2025-12-27T10:54:32.343264",
        "meta_mean_motion": 1.00599384,
        "meta_eccentricity": 0.0003395,
        "meta_inclination": 2.8575,
        "meta_ra_of_asc_node": 81.111,
        "meta_arg_of_pericenter": 162.0273,
        "meta_mean_anomaly": 296.8152,
        "meta_ephemeris_type": 0,
        "meta_classification_type": "U",
        "meta_norad_cat_id": 28702,
        "meta_element_set_no": 999,
        "meta_rev_at_epoch": 5025,
        "meta_bstar": 0,
        "meta_mean_motion_dot": -2.36e-06,
        "meta_mean_motion_ddot": 0,
        "tle_line1": "1 28702U 05022A   25361.45454101 -.00000236  00000+0  00000+0 0  9999",
        "tle_line2": "2 28702   2.8575  81.1110 0003395 162.0273 296.8152  1.00599384 50255"
      },
      "geometry": {
        "type": "Point",
        "coordinates": [
          -81.85848756028213,
          -0.8562638106587681
        ]
      }
    },
    {
      "type": "Feature",
      "properties": {
        "norad_id": 29236,
        "name": "GALAXY 16 (G-16)",
        "group": "intelsat",
        "lat": 0.012672955134352213,
        "lon": -101.3401382377319,
        "alt_km": 35775.42553244752,
        "timestamp": "2025-12-27T17:24:57.061149+00:00",
        "meta_object_name": "GALAXY 16 (G-16)",
        "meta_object_id": "2006-023A",
        "meta_epoch": "2025-12-27T05:40:54.876864",
        "meta_mean_motion": 1.00271202,
        "meta_eccentricity": 0.00027459,
        "meta_inclination": 0.0429,
        "meta_ra_of_asc_node": 195.3646,
        "meta_arg_of_pericenter": 84.5486,
        "meta_mean_anomaly": 162.2754,
        "meta_ephemeris_type": 0,
        "meta_classification_type": "U",
        "meta_norad_cat_id": 29236,
        "meta_element_set_no": 999,
        "meta_rev_at_epoch": 7124,
        "meta_bstar": 0,
        "meta_mean_motion_dot": -1.04e-06,
        "meta_mean_motion_ddot": 0,
        "tle_line1": "1 29236U 06023A   25361.23674626 -.00000104  00000+0  00000+0 0  9990",
        "tle_line2": "2 29236   0.0429 195.3646 0002745  84.5486 162.2754  1.00271202 71242"
      },
      "geometry": {
        "type": "Point",
        "coordinates": [
          -101.3401382377319,
          0.012672955134352213
        ]
      }
    },
    {
      "type": "Feature",
      "properties": {
        "norad_id": 29494,
        "name": "DIRECTV 9S",
        "group": "intelsat",
        "lat": 0.20959470567711055,
        "lon": -103.53077144535855,
        "alt_km": 35774.1578302861,
        "timestamp": "2025-12-27T17:24:57.061161+00:00",
        "meta_object_name": "DIRECTV 9S",
        "meta_object_id": "2006-043A",
        "meta_epoch": "2025-12-27T05:40:17.437152",
        "meta_mean_motion": 1.00271318,
        "meta_eccentricity": 0.00031286,
        "meta_inclination": 1.9756,
        "meta_ra_of_asc_node": 83.0552,
        "meta_arg_of_pericenter": 198.0551,
        "meta_mean_anomaly": 158.7284,
        "meta_ephemeris_type": 0,
        "meta_classification_type": "U",
        "meta_norad_cat_id": 29494,
        "meta_element_set_no": 999,
        "meta_rev_at_epoch": 4965,
        "meta_bstar": 0,
        "meta_mean_motion_dot": -9.2e-07,
        "meta_mean_motion_ddot": 0,
        "tle_line1": "1 29494U 06043A   25361.23631293 -.00000092  00000+0  00000+0 0  9997",
        "tle_line2": "2 29494   1.9756  83.0552 0003128 198.0551 158.7284  1.00271318 49656"
      },
      "geometry": {
        "type": "Point",
        "coordinates": [
          -103.53077144535855,
          0.20959470567711055
        ]
      }
    }
  ]
}